#aV2008 11 28  0  0   .00000000      96 DD+AD WGS84 FIT  NGA
## 1507 432000.00000000   900.00000000 54798  .0000000000000
+   31     2  3  4  5  6  7  8  9 10 11 12 13 14 15 16 17 18
+         19 20 21 22 23 24 25 26 27 28 29 30 31 32  0  0  0
+          0  0  0  0  0  0  0  0  0  0  0  0  0  0  0  0  0
+          0  0  0  0  0  0  0  0  0  0  0  0  0  0  0  0  0
+          0  0  0  0  0  0  0  0  0  0  0  0  0  0  0  0  0
++         0  0  0  0  0  0  0  0  0  0  0  0  0  0  0  0  0
++         0  0  0  0  0  0  0  0  0  0  0  0  0  0  0  0  0
++         0  0  0  0  0  0  0  0  0  0  0  0  0  0  0  0  0
++         0  0  0  0  0  0  0  0  0  0  0  0  0  0  0  0  0
++         0  0  0  0  0  0  0  0  0  0  0  0  0  0  0  0  0
%c cc cc ccc ccc cccc cccc cccc cccc ccccc ccccc ccccc ccccc
%c cc cc ccc ccc cccc cccc cccc cccc ccccc ccccc ccccc ccccc
%f  0.0000000  0.000000000  0.00000000000  0.000000000000000
%f  0.0000000  0.000000000  0.00000000000  0.000000000000000
%i    0    0    0    0      0      0      0      0         0
%i    0    0    0    0      0      0      0      0         0
/*      NGA, ST. LOUIS,MO.                                  
/*   EPHEMERIS COMPUTED FROM  3 DAYS OF DATA                
/* CCCCCCCCCCCCCCCCCCCCCCCCCCCCCCCCCCCCCCCCCCCCCCCCCCCCCCCCC
/* CCCCCCCCCCCCCCCCCCCCCCCCCCCCCCCCCCCCCCCCCCCCCCCCCCCCCCCCC
*  2008 11 28 13  0   .00000000                                                 
P  2 -22577.007295  12773.740295  -4786.187243    170.310336                    
V  2   2589.683746  -6513.714717 -30795.380525      -.023893                    
P  3  12721.411530 -11536.453552  19885.361393    317.382266                    
V  3   7271.067883  25139.906492  10142.657114       .052106                    
P  4 -21432.917765   1246.613251 -15989.897015   -247.024934                    
V  4  14951.570134 -13427.813140 -20874.945198      -.124780                    
P  5   2994.071131  16743.289732 -20721.754011   -398.925652                    
V  5 -24693.171166  -7103.232522  -9320.257218       .009719                    
P  6  14795.279195  -6808.407506  21164.014479    134.306955                    
V  6   4773.037044  26133.543934   5128.845644      -.082694                    
P  7  -4098.793383 -15300.975285  21282.855713     23.412419                    
V  7  22133.643225 -15609.044036  -7057.008775       .001220                    
P  8 -16155.647039  -5539.794018  20415.182112   -179.864572                    
V  8  21309.318054 -14655.323071  12362.479931      -.015043                    
P  9 -11161.022563  20445.224315 -13291.715473     27.063364                    
V  9 -13533.891419   8464.078178  25743.382894       .018438                    
P 10 -19370.341249   4583.488606  17605.514435     -7.707674                    
V 10 -19799.923901 -10812.110044 -18487.742368      -.004643                    
P 11   7136.036190 -22513.428621 -11994.847249     14.543961                    
V 11  13385.874330  -8522.266595  24691.173823      -.008705                    
P 12  -2360.637446  15251.336967 -21554.890141   -337.653448                    
V 12 -25351.719539 -10695.299840  -4680.770146       .025926                    
P 13  -4894.158208 -25585.401485   5077.764742    279.034279                    
V 13   1277.502238  -6665.643112 -31637.684315       .014818                    
P 14  14108.180152   9812.242867 -20167.495165   -188.829865                    
V 14   1312.856317  25742.222473  13254.548281       .048901                    
P 15  -7664.615249  20862.402588  14550.367919   -218.180300                    
V 15  -4524.158418 -18013.925054  23528.501553      -.061054                    
P 16  22940.184306    154.518882  13627.494849     92.457703                    
V 16  14773.543300   8839.017147 -24866.742128      -.024409                    
P 17 -14400.188942 -12243.463374 -18687.135498     41.209071                    
V 17   -993.096128 -23781.904446  16131.122203       .005669                    
P 18  17139.491788  17202.157316  11387.592683   -108.422427                    
V 18 -13763.312783  -3750.942547  26515.418638       .038018                    
P 19   8408.537222 -21362.254824  13231.418197     35.302798                    
V 19   3194.395387  16667.078888  25214.198830      -.002554                    
P 20  -1249.561489 -16705.712123 -20736.517921     97.847851                    
V 20  24511.582464   9052.256083  -8774.942300      -.010309                    
P 21   9904.238407  12424.515937  21511.584667     40.666380                    
V 21 -22048.410562  15403.569817    649.021529      -.016037                    
P 22  23918.168001  11621.923001    168.319479    208.791412                    
V 22  -1465.191683   2999.987058  31313.094458      -.005671                    
P 23     42.675682 -26079.305129  -4244.150650    381.277156                    
V 23   3250.551861   5038.297755 -31542.334128       .010612                    
P 24  -6271.415511  19184.718579  17548.300966    144.687452                    
V 24 -19148.367351  10790.416766 -18523.668275       .031701                    
P 25   2165.080127 -19219.381264  18639.860140     59.313143                    
V 25  17793.403152 -14390.760500 -17063.616026       .296186                    
P 26 -10786.723042  15405.388621  18021.288718     20.436466                    
V 26  -2991.024008 -23906.252773  18655.252013       .042416                    
P 27  -9886.692697 -11656.634818  22412.780705      3.557262                    
V 27  20562.481479 -17163.613126     35.994738       .031110                    
P 28 -23403.109243 -12786.550778   2411.099415    -23.654692                    
V 28   3305.808127  -1061.967823  31438.515312      -.001496                    
P 29   4941.739381  25877.073927   3638.962885    -27.784044                    
V 29  -2366.420368   4728.088731 -31250.608128       .018433                    
P 30  11933.569736  17323.713241 -16624.384026    110.488214                    
V 30 -19747.377557  -5581.877682 -20355.069394       .021870                    
P 31  22012.380992  -4410.891593 -14067.488728    -41.000691                    
V 31 -13416.994397  12386.222469 -24403.719477      -.017667                    
P 32   7269.050449 -12993.839009 -21570.295059    312.263932                    
V 32  24943.681505  13565.336878    440.118870      -.016548                    
EOF
